CIC_OEM_VERS = 2.0
ORIGINATOR   = C²ERES
Date         = 08-August-2016 18:10:48

OBJECT_NAME  = BIRDY
OBJECT_ID    = CORPS

CENTER_NAME  = SUN
REF_FRAME    = ECLIPTICJ2000
TIME_SYSTEM  = UTC

META_START

COLUMN #01   : Day of the date in (MJD)
COLUMN #02   : Fractional seconds in the day (in seconds)
COLUMN #03   : X  axis of the Spacecraft (in km)
COLUMN #04   : Y  axis of the Spacecraft (in km)
COLUMN #05   : Z  axis of the Spacecraft (in km)
COLUMN #06   : Vx axis of the Spacecraft (in m/s)
COLUMN #07   : Vy axis of the Spacecraft (in m/s)
COLUMN #08   : Vz axis of the Spacecraft (in m/s)
COLUMN #09   : Ax axis of the Spacecraft (in m/s²)
COLUMN #10   : Ay axis of the Spacecraft (in m/s²)
COLUMN #11   : Az axis of the Spacecraft (in m/s²)
COLUMN #12   : The radii of the Spacecraft from the Sun (in km)

META_STOP

58626	61986.1593783	-71031854.8455	-133769907.381	7207.5390017	25433.3773	-13917.545	210.9345	0.0	0.0	0.0	151459276.954	
58626	61986.1593783	-70482507.5416	-134070532.412	11761.686928	11845.551206	-19938.1972014	-1826.47295013	-3.80304167357	-1.6892783995	-0.565874543494	151468451.068	
58626	83586.1593783	-70226642.9551	-134501211.617	-27703.2835761	12582.5387852	-34042.7552334	-14981.7982622	0.176906146217	-3.93550008938	-3.65396414809	151731203.365	
58627	18786.1593783	-69954860.068	-135236535.07	-351310.124206	12670.7851624	-33928.5332476	-14979.4033401	0.00603992926775	0.00648212845226	0.000373893264782	152258747.807	
58627	40386.1593783	-69681171.0766	-135969391.331	-674865.234548	12734.2592228	-33815.2000728	-14976.2501711	0.00296441143161	0.00540069633594	0.000214425142804	152786113.324	
58627	61986.1593783	-69406111.0482	-136699799.597	-998352.237199	12792.6831177	-33704.0886586	-14974.2672059	0.00269799784114	0.005178508981	0.000106235225161	153313535.501	
58627	83586.1593783	-69129789.0647	-137427807.857	-1321796.40802	12849.0755572	-33594.2821017	-14972.6498314	0.00260604433847	0.00509567406588	7.9606596385e-05	153841077.915	
58628	18786.1593783	-68852249.0051	-138153444.296	-1645205.64359	12904.1892642	-33485.3946748	-14971.0842868	0.00254877158771	0.00504650690695	7.45060211557e-05	154368756.766	
58628	40386.1593783	-68573518.4899	-138876728.767	-1968581.06336	12958.2888623	-33377.2570261	-14969.4405126	0.00250289687098	0.00500923885154	7.71341237341e-05	154896573.695	
58628	61986.1593783	-68293619.4239	-139597677.465	-2291920.97754	13011.4925008	-33269.7853636	-14967.6584124	0.00246202019711	0.00497722875506	8.30981256615e-05	155424524.8	
58628	83586.1593783	-68012571.1597	-140316304.775	-2615222.39827	13063.8633706	-33162.9336586	-14965.708095	0.00242382191384	0.00494791404656	9.06639251456e-05	155952603.728	
58629	18786.1593783	-67730391.6851	-141032624.089	-2938481.69205	13115.4405303	-33056.6743388	-14963.574206	0.00238729715063	0.00492013968287	9.90391976258e-05	156480802.944	
58629	40386.1593783	-67447098.1442	-141746648.202	-3261694.89374	13166.2511283	-32950.9896313	-14961.2490132	0.00235195190192	0.00489332430116	0.000107821985789	157009114.315	
58629	61986.1593783	-67162707.0948	-142458389.525	-3584857.87116	13216.3158742	-32845.8673224	-14958.7290576	0.00231751881568	0.00486715021488	0.00011679189598	157537529.422	
58629	83586.1593783	-66877234.6473	-143167860.207	-3907966.41745	13265.6517277	-32741.2985248	-14956.0134049	0.00228384160653	0.00484143248126	0.000125820754728	158066039.717	
58630	18786.1593783	-66590696.5457	-143875072.203	-4231016.30554	13314.2733234	-32637.2764291	-14953.1026734	0.00225082280258	0.00481605793308	0.000134830599303	158594636.627	
58630	40386.1593783	-66303108.2179	-144580037.322	-4554003.32173	13362.1937713	-32533.7955702	-14949.9984664	0.00221839808032	0.00479095450954	0.000143772384449	159123311.61	
58630	61986.1593783	-66014484.8088	-145282767.255	-4876923.28696	13409.4251316	-32430.8513774	-14946.7030249	0.0021865227862	0.00476607482991	0.00015261450765	159652056.193	
58630	83586.1593783	-65724841.2027	-145983273.594	-5199772.07055	13455.9787074	-32328.43989	-14943.2190087	0.00215516445622	0.00474138692581	0.000161336302224	160180861.996	
58631	18786.1593783	-65434192.0397	-146681567.844	-5522545.59931	13501.8652319	-32226.5575697	-14939.5493529	0.0021242984674	0.0047168687781	0.000169924185089	160709720.749	
58631	40386.1593783	-65142551.7281	-147377661.437	-5845239.8634	13547.0949937	-32125.2011759	-14935.6971724	0.00209390540788	0.00469250497355	0.000178369290451	161238624.298	
58631	61986.1593783	-64849934.4539	-148071565.732	-6167850.92031	13591.6779206	-32024.3676797	-14931.6656961	0.00206396943115	0.00466828459155	0.00018666596907	161767564.617	
58631	83586.1593783	-64556354.1889	-148763292.024	-6490374.89724	13635.623639	-31924.0542035	-14927.4582206	0.00203447719506	0.00464419983015	0.00019481080953	162296533.809	
58632	18786.1593783	-64261824.6966	-149452851.545	-6812807.99262	13678.941517	-31824.2579784	-14923.0780782	0.00200541715962	0.0046202450903	0.000202801984057	162825524.108	
58632	40386.1593783	-63966359.5385	-150140255.468	-7135146.47683	13721.6406948	-31724.9763136	-14918.5286131	0.0019767791112	0.00459641635203	0.000210638801619	163354527.883	
58632	61986.1593783	-63669972.0784	-150825514.907	-7457386.69252	13763.7301081	-31626.2065735	-14913.8131645	0.00194855383353	0.00457271074121	0.000218321396644	163883537.634	
58632	83586.1593783	-63372675.4874	-151508640.919	-7779525.05443	13805.2185062	-31527.9461618	-14908.9350539	0.00192073287559	0.00454912622331	0.000225850508386	164412545.999	
58633	18786.1593783	-63074482.7472	-152189644.508	-8101558.04907	13846.1144658	-31430.1925085	-14903.897576	0.0018933083853	0.00452566138366	0.000233227322091	164941545.743	
58633	40386.1593783	-62775406.6546	-152868536.617	-8423482.23412	13886.4264018	-31332.9430618	-14898.7039918	0.00186627298826	0.00450231526756	0.000240453353023	165470529.766	
58633	61986.1593783	-62475459.8244	-153545328.139	-8745294.23767	13926.1625762	-31236.1952806	-14893.3575236	0.00183961969819	0.00447908726244	0.000247530360709	165999491.098	
58633	83586.1593783	-62174654.6932	-154220029.909	-9066990.75743	13965.3311058	-31139.9466297	-14887.8613511	0.00181334184975	0.00445597701018	0.000254460284808	166528422.897	
58634	18786.1593783	-61873003.522	-154892652.708	-9388568.55979	14003.9399678	-31044.1945762	-14882.2186091	0.00178743304767	0.00443298434111	0.000261245196644	167057318.449	
58634	40386.1593783	-61570518.3997	-155563207.263	-9710024.47885	14041.9970055	-30948.9365869	-14876.4323848	0.0017618871276	0.00441010922398	0.000267887262252	167586171.164	
58634	61986.1593783	-61267211.2456	-156231704.246	-10031355.4154	14079.5099324	-30854.170126	-14870.5057172	0.00173669812574	0.00438735172772	0.000274388713969	168114974.577	
58634	83586.1593783	-60963093.8126	-156898154.274	-10352558.3359	14116.4863365	-30759.8926539	-14864.4415958	0.00171186025502	0.00436471199209	0.000280751828435	168643722.343	
58635	18786.1593783	-60658177.6895	-157562567.908	-10673630.2712	14152.9336837	-30666.1016264	-14858.2429601	0.00168736788618	0.00434219020496	0.000286978909449	169172408.24	
58635	40386.1593783	-60352474.3039	-158224955.657	-10994568.316	14188.8593208	-30572.7944942	-14851.9126993	0.00166321553258	0.00431978658469	0.000293072274549	169701026.16	
58635	61986.1593783	-60045994.9249	-158885327.972	-11315369.6271	14224.2704787	-30479.9687022	-14845.4536524	0.00163939783793	0.00429750136644	0.000299034244452	170229570.113	
58635	83586.1593783	-59738750.6651	-159543695.249	-11636031.4227	14259.1742749	-30387.6216901	-14838.8686085	0.00161590956629	0.00427533479152	0.000304867134721	170758034.224	
58636	18786.1593783	-59430752.4836	-160200067.832	-11956550.9813	14293.5777158	-30295.7508919	-14832.1603064	0.00159274559371	0.00425328709909	0.000310573249179	171286412.729	
58636	40386.1593783	-59122011.188	-160854456.005	-12276925.6405	14327.4876994	-30204.3537363	-14825.3314357	0.00156990090135	0.00423135851971	0.0003161548747	171814699.973	
58636	61986.1593783	-58812537.4369	-161506870.001	-12597152.796	14360.911017	-30113.4276474	-14818.3846371	0.00154737056967	0.00420954927033	0.000321614277081	172342890.413	
58636	83586.1593783	-58502341.7425	-162157319.993	-12917229.9006	14393.8543557	-30022.9700446	-14811.3225024	0.00152514977344	0.00418785955051	0.000326953697794	172870978.608	
58637	18786.1593783	-58191434.4722	-162805816.101	-13237154.4631	14426.3243003	-29932.9783432	-14804.1475759	0.0015032337775	0.00416628953947	0.000332175351431	173398959.225	
58637	40386.1593783	-57879825.8513	-163452368.388	-13556924.0471	14458.3273348	-29843.4499552	-14796.8623545	0.00148161793307	0.00414483939397	0.000337281423711	173926827.033	
58637	61986.1593783	-57567525.9651	-164096986.863	-13876536.2703	14489.8698445	-29754.3822895	-14789.4692885	0.00146029767454	0.00412350924666	0.000342274069948	174454576.902	
58637	83586.1593783	-57254544.7609	-164739681.476	-14195988.8031	14520.9581181	-29665.7727527	-14781.9707824	0.00143926851657	0.00410229920505	0.00034715541388	174982203.8	
58638	18786.1593783	-56940892.0502	-165380462.123	-14515279.3682	14551.5983486	-29577.6187492	-14774.3691953	0.0014185260516	0.00408120935074	0.000351927546806	175509702.793	
58638	40386.1593783	-56626577.5108	-166019338.644	-14834405.739	14581.7966355	-29489.9176826	-14766.666842	0.00139806594754	0.00406023973901	0.000356592526975	176037069.045	
58638	61986.1593783	-56311610.6886	-166656320.823	-15153365.7389	14611.5589863	-29402.6669555	-14758.8659934	0.00137788394568	0.00403939039865	0.000361152379162	176564297.811	
58638	83586.1593783	-55996000.9998	-167291418.385	-15472157.2404	14640.891318	-29315.8639706	-14750.9688774	0.00135797585881	0.004018661332	0.000365609094433	177091384.44	
58639	18786.1593783	-55679757.7329	-167924641.004	-15790778.1642	14669.7994586	-29229.5061308	-14742.9776798	0.00133833756947	0.00399805251515	0.000369964630025	177618324.371	
58639	40386.1593783	-55362890.0504	-168555998.293	-16109226.478	14698.2891487	-29143.5908402	-14734.8945446	0.00131896502835	0.00397756389821	0.000374220909358	178145113.133	
58639	61986.1593783	-55045406.9907	-169185499.813	-16427500.1961	14726.3660426	-29058.1155046	-14726.7215751	0.00129985425275	0.00395719540578	0.000378379822126	178671746.341	
58639	83586.1593783	-54727317.4703	-169813155.065	-16745597.378	14754.0357101	-28973.0775317	-14718.4608344	0.00128100132515	0.00393694693743	0.000382443224478	179198219.696	
58640	18786.1593783	-54408630.2854	-170438973.498	-17063516.1278	14781.3036378	-28888.474332	-14710.1143463	0.00126240239191	0.00391681836824	0.000386412939252	179724528.986	
58640	40386.1593783	-54089354.1134	-171062964.501	-17381254.5935	14808.1752303	-28804.3033192	-14701.6840958	0.00124405366198	0.00389680954948	0.00039029075627	180250670.078	
58640	61986.1593783	-53769497.5151	-171685137.411	-17698810.9657	14834.6558116	-28720.5619107	-14693.1720302	0.00122595140567	0.00387692030918	0.000394078432669	180776638.923	
58640	83586.1593783	-53449068.9366	-172305501.507	-18016183.4773	14860.7506266	-28637.2475279	-14684.5800593	0.00120809195351	0.00385715045286	0.00039777769327	181302431.552	
58641	18786.1593783	-53128076.7102	-172924066.012	-18333370.4022	14886.4648418	-28554.3575971	-14675.9100563	0.00119047169511	0.0038374997642	0.000401390230978	181828044.073	
58641	40386.1593783	-52806529.0569	-173540840.095	-18650370.055	14911.8035474	-28471.8895495	-14667.1638587	0.00117308707815	0.00381796800577	0.000404917707203	182353472.67	
